OBJECT_NAME,OBJECT_ID,EPOCH,MEAN_MOTION,ECCENTRICITY,INCLINATION,RA_OF_ASC_NODE,ARG_OF_PERICENTER,MEAN_ANOMALY,EPHEMERIS_TYPE,CLASSIFICATION_TYPE,NORAD_CAT_ID,ELEMENT_SET_NO,REV_AT_EPOCH,BSTAR,MEAN_MOTION_DOT,MEAN_MOTION_DDOT
POISK,2009-060A,2026-06-18T03:46:08.346720,15.49293017,.00047434,51.6334,295.2921,200.3344,159.7456,0,U,36086,999,57109,.18166151E-3,.9674E-4,0
SJ-11-01,2009-061A,2026-06-18T07:05:54.074400,14.63690629,.00117031,98.0051,150.2506,25.9541,85.0714,0,U,36088,999,88465,.12429751E-3,.601E-5,0
COSMOS 2455,2009-063A,2026-06-18T05:15:45.342720,13.97050872,.0003396,67.1477,250.3894,266.3641,93.7055,0,U,36095,999,84527,.47905531E-4,-.8E-7,0
INTELSAT 14 (IS-14),2009-064A,2026-06-18T04:09:09.371232,1.00272898,.00023022,0.0134,307.6173,136.3334,199.7596,0,U,36097,999,6061,0,-.279E-5,0
EUTELSAT 36B,2009-065A,2026-06-18T04:36:29.251872,1.00274364,.00058378,0.4948,81.1121,3.9419,301.0221,0,U,36101,999,6071,0,.106E-5,0
INTELSAT 15 (IS-15),2009-067A,2026-06-17T21:55:43.252320,1.00270234,.00020846,0.0144,330.2034,120.0474,229.9779,0,U,36106,999,4123,0,-.19E-5,0
WGS F3 (USA 211),2009-068A,2026-06-17T17:28:58.100736,1.00262204,.00007117,0.3253,85.7423,254.1206,58.3557,0,U,36108,999,4659,0,.6E-6,0
YAOGAN-7,2009-069A,2026-06-18T02:30:09.720288,14.78010700,.00255232,98.0071,54.9657,38.9227,321.3815,0,U,36110,999,88976,.59312095E-4,.377E-5,0
COSMOS 2456 [GLONASS-M],2009-070A,2026-06-16T03:42:15.751008,2.13103754,.0004648,65.0107,71.0074,331.0109,212.9328,0,U,36111,999,12840,0,-.23E-6,0
COSMOS 2457 [GLONASS-M],2009-070B,2026-06-18T07:58:32.353824,2.13101036,.00029174,64.9975,70.7771,122.0762,60.1336,0,U,36112,999,12845,0,-.27E-6,0
YAOGAN-8,2009-072A,2026-06-18T02:36:50.306112,13.05083335,.00207406,100.2179,53.5713,323.9122,36.0585,0,U,36121,999,78879,-.29740825E-3,-.138E-5,0
XIWANG-1 (HOPE-1),2009-072B,2026-06-18T07:23:19.936896,13.16440161,.00068687,100.4031,123.1226,228.8335,131.2186,0,U,36122,999,79315,.9145708E-3,.305E-5,0
DIRECTV 12,2009-075A,2026-06-17T15:54:09.294912,1.00267604,.00002583,0.0147,116.8023,315.2518,329.6722,0,U,36131,999,4655,0,-.108E-5,0
BEIDOU-2 G1,2010-001A,2026-06-17T22:11:26.744640,1.00269983,.00022765,4.2953,60.4037,295.7125,23.3830,0,U,36287,999,6017,0,-.288E-5,0
SDO,2010-005A,2026-06-17T09:50:26.387232,1.00269958,.00017341,34.6527,86.3378,44.0102,180.8312,0,U,36395,999,6006,0,-.96E-6,0
INTELSAT 16 (IS-16),2010-006A,2026-06-18T06:51:15.508224,1.00272532,.00019147,0.0114,323.6206,137.5235,191.9878,0,U,36397,999,5966,0,-.251E-5,0
COSMOS 2460 [GLONASS-M],2010-007C,2026-06-13T20:48:05.350176,2.13101719,.00021218,65.4226,314.5793,106.9290,251.4243,0,U,36402,999,12665,0,-.52E-6,0
EWS-G2 (GOES 15),2010-008A,2026-06-18T04:57:21.564576,1.00266109,.0004809,1.2813,82.8263,42.3031,279.3564,0,U,36411,999,5964,0,.13E-6,0
YAOGAN-9 01A,2010-009A,2026-06-17T22:37:47.452512,13.45703444,.05374238,63.3658,356.2632,21.7641,340.5310,0,U,36413,999,80007,.26403289E-4,-.55E-6,0
YAOGAN-9 01B,2010-009B,2026-06-17T23:55:41.899872,13.45711068,.05382581,63.3670,355.7619,20.9252,341.2916,0,U,36414,999,79985,.19155339E-4,-.65E-6,0
YAOGAN-9 01C,2010-009C,2026-06-17T23:53:13.212384,13.45712727,.0538944,63.3667,356.2778,21.2586,340.9933,0,U,36415,999,80001,.21770463E-4,-.61E-6,0
ECHOSTAR 14,2010-010A,2026-06-18T07:21:59.935680,1.00269824,.00023479,0.0482,84.6224,15.9538,157.5830,0,U,36499,999,4656,0,-.6E-7,0
CRYOSAT 2,2010-013A,2026-06-18T07:43:46.977600,14.51899551,.00021449,92.0356,277.5773,90.0505,270.0948,0,U,36508,999,85824,.46842207E-4,.192E-5,0
SES-1,2010-016A,2026-06-17T22:45:14.817888,1.00271142,.00025413,0.0113,345.9938,99.4519,61.0594,0,U,36516,999,5904,0,-.12E-5,0
COSMOS 2463,2010-017A,2026-06-18T04:55:26.048640,13.71665752,.00373788,82.9605,248.9579,126.1460,264.5402,0,U,36519,999,80807,.43496871E-4,.55E-6,0
ASTRA 3B,2010-021A,2026-06-18T04:28:44.992704,1.00271376,.00041606,1.4722,83.5449,6.3830,267.1713,0,U,36581,999,5887,0,.13E-5,0
COMSATBW-2,2010-021B,2026-06-18T02:43:07.771296,1.00273035,.00026183,0.0479,67.5271,35.1547,217.6520,0,U,36582,999,5896,0,.82E-6,0
NAVSTAR 65 (USA 213),2010-022A,2026-06-16T12:34:16.701888,2.00562332,.01263085,54.2702,208.5888,66.1160,340.2016,0,U,36585,999,11758,0,.55E-6,0
SERVIS 2,2010-023A,2026-06-18T03:20:52.711008,13.16053443,.00166285,100.4280,356.8342,272.8520,202.5760,0,U,36588,999,77089,.12330324E-4,-.4E-6,0
BEIDOU-2 G3,2010-024A,2026-06-18T03:01:58.464768,1.00270937,.0007734,4.5184,61.5132,351.2919,338.7568,0,U,36590,999,5877,0,-.144E-5,0
BADR-5,2010-025A,2026-06-18T04:30:44.801856,1.00272537,.0003879,0.0565,122.3347,70.1782,172.0656,0,U,36592,999,5322,0,.148E-5,0
